{"type": "FeatureCollection", "features": [ {"type": "Feature", "properties": {"norad_id": 35207, "name": "FENGYUN 1C DEB", "group": "fengyun-1c-debris", "lat": -55.21314256494679, "lon": 105.28292078185889, "alt_km": 701.3383630676544, "timestamp": "2025-12-19T22:41:52.681397+00:00", "meta": {"OBJECT_NAME": "FENGYUN 1C DEB", "OBJECT_ID": "1999-025DPP", "EPOCH": "2025-12-18T12:18:35.176032", "MEAN_MOTION": 14.55542717, "ECCENTRICITY": 0.00552305, "INCLINATION": 98.6905, "RA_OF_ASC_NODE": 91.073, "ARG_OF_PERICENTER": 237.6836, "MEAN_ANOMALY": 121.9005, "EPHEMERIS_TYPE": 0, "CLASSIFICATION_TYPE": "U", "NORAD_CAT_ID": 35207, "ELEMENT_SET_NO": 999, "REV_AT_EPOCH": 64988, "BSTAR": 0.0018220991, "MEAN_MOTION_DOT": 8.059e-05, "MEAN_MOTION_DDOT": 0}, "tle": {"line1": "1 35207U 99025DPP 25352.51290713  .00008059  00000+0  18221-2 0  9994", "line2": "2 35207  98.6905  91.0730 0055230 237.6836 121.9005 14.55542717649880"}}, "geometry": {"type": "Point", "coordinates": [105.28292078185889, -55.21314256494679]}}, {"type": "Feature", "properties": {"norad_id": 35208, "name": "FENGYUN 1C DEB", "group": "fengyun-1c-debris", "lat": -72.28277936792148, "lon": 42.33076237827099, "alt_km": 964.914296684221, "timestamp": "2025-12-19T22:41:52.681409+00:00", "meta": {"OBJECT_NAME": "FENGYUN 1C DEB", "OBJECT_ID": "1999-025DPQ", "EPOCH": "2025-12-12T19:29:45.564288", "MEAN_MOTION": 13.99657071, "ECCENTRICITY": 0.01013151, "INCLINATION": 98.903, "RA_OF_ASC_NODE": 6.0094, "ARG_OF_PERICENTER": 156.4473, "MEAN_ANOMALY": 204.1379, "EPHEMERIS_TYPE": 0, "CLASSIFICATION_TYPE": "U", "NORAD_CAT_ID": 35208, "ELEMENT_SET_NO": 999, "REV_AT_EPOCH": 90564, "BSTAR": 0.0013122763, "MEAN_MOTION_DOT": 1.963e-05, "MEAN_MOTION_DDOT": 0}, "tle": {"line1": "1 35208U 99025DPQ 25346.81233292  .00001963  00000+0  13123-2 0  9993", "line2": "2 35208  98.9030   6.0094 0101315 156.4473 204.1379 13.99657071905647"}}, "geometry": {"type": "Point", "coordinates": [42.33076237827099, -72.28277936792148]}}, {"type": "Feature", "properties": {"norad_id": 35210, "name": "FENGYUN 1C DEB", "group": "fengyun-1c-debris", "lat": 24.831286056969017, "lon": -6.142110207847532, "alt_km": 813.047076241538, "timestamp": "2025-12-19T22:41:52.681420+00:00", "meta": {"OBJECT_NAME": "FENGYUN 1C DEB", "OBJECT_ID": "1999-025DPS", "EPOCH": "2025-12-18T12:06:50.330880", "MEAN_MOTION": 14.33704847, "ECCENTRICITY": 0.00494065, "INCLINATION": 99.0985, "RA_OF_ASC_NODE": 356.596, "ARG_OF_PERICENTER": 222.166, "MEAN_ANOMALY": 289.65, "EPHEMERIS_TYPE": 0, "CLASSIFICATION_TYPE": "U", "NORAD_CAT_ID": 35210, "ELEMENT_SET_NO": 999, "REV_AT_EPOCH": 90205, "BSTAR": 0.0020107136, "MEAN_MOTION_DOT": 5.613e-05, "MEAN_MOTION_DDOT": 0}, "tle": {"line1": "1 35210U 99025DPS 25352.50474920  .00005613  00000+0  20107-2 0  9990", "line2": "2 35210  99.0985 356.5960 0049406 222.1660 289.6500 14.33704847902056"}}, "geometry": {"type": "Point", "coordinates": [-6.142110207847532, 24.831286056969017]}}, {"type": "Feature", "properties": {"norad_id": 35217, "name": "FENGYUN 1C DEB", "group": "fengyun-1c-debris", "lat": 76.78014709324152, "lon": -153.0066625047991, "alt_km": 1252.9458734253512, "timestamp": "2025-12-19T22:41:52.681430+00:00", "meta": {"OBJECT_NAME": "FENGYUN 1C DEB", "OBJECT_ID": "1999-025DPZ", "EPOCH": "2025-12-16T00:31:46.822080", "MEAN_MOTION": 13.57523725, "ECCENTRICITY": 0.03020457, "INCLINATION": 101.8758, "RA_OF_ASC_NODE": 265.8616, "ARG_OF_PERICENTER": 288.6471, "MEAN_ANOMALY": 68.209, "EPHEMERIS_TYPE": 0, "CLASSIFICATION_TYPE": "U", "NORAD_CAT_ID": 35217, "ELEMENT_SET_NO": 999, "REV_AT_EPOCH": 61264, "BSTAR": 0.0019543408, "MEAN_MOTION_DOT": 1.822e-05, "MEAN_MOTION_DDOT": 0}, "tle": {"line1": "1 35217U 99025DPZ 25350.02206970  .00001822  00000+0  19543-2 0  9990", "line2": "2 35217 101.8758 265.8616 0302045 288.6471  68.2090 13.57523725612648"}}, "geometry": {"type": "Point", "coordinates": [-153.0066625047991, 76.78014709324152]}}, {"type": "Feature", "properties": {"norad_id": 35220, "name": "FENGYUN 1C DEB", "group": "fengyun-1c-debris", "lat": 34.323302598796225, "lon": -109.61021843142817, "alt_km": 838.5959128008199, "timestamp": "2025-12-19T22:41:52.681441+00:00", "meta": {"OBJECT_NAME": "FENGYUN 1C DEB", "OBJECT_ID": "1999-025DQC", "EPOCH": "2025-12-17T15:59:55.105728", "MEAN_MOTION": 14.22592143, "ECCENTRICITY": 0.00434644, "INCLINATION": 99.0288, "RA_OF_ASC_NODE": 61.8233, "ARG_OF_PERICENTER": 292.8238, "MEAN_ANOMALY": 66.8352, "EPHEMERIS_TYPE": 0, "CLASSIFICATION_TYPE": "U", "NORAD_CAT_ID": 35220, "ELEMENT_SET_NO": 999, "REV_AT_EPOCH": 63253, "BSTAR": 0.0012376652, "MEAN_MOTION_DOT": 2.746e-05, "MEAN_MOTION_DDOT": 0}, "tle": {"line1": "1 35220U 99025DQC 25351.66661002  .00002746  00000+0  12377-2 0  9990", "line2": "2 35220  99.0288  61.8233 0043464 292.8238  66.8352 14.22592143632530"}}, "geometry": {"type": "Point", "coordinates": [-109.61021843142817, 34.323302598796225]}}, {"type": "Feature", "properties": {"norad_id": 35223, "name": "FENGYUN 1C DEB", "group": "fengyun-1c-debris", "lat": 14.804537797920663, "lon": -25.004377595508053, "alt_km": 572.5361865795157, "timestamp": "2025-12-19T22:41:52.681471+00:00", "meta": {"OBJECT_NAME": "FENGYUN 1C DEB", "OBJECT_ID": "1999-025DQF", "EPOCH": "2025-12-15T21:52:13.271808", "MEAN_MOTION": 14.89040296, "ECCENTRICITY": 0.01278562, "INCLINATION": 98.9714, "RA_OF_ASC_NODE": 332.82, "ARG_OF_PERICENTER": 316.3242, "MEAN_ANOMALY": 42.7908, "EPHEMERIS_TYPE": 0, "CLASSIFICATION_TYPE": "U", "NORAD_CAT_ID": 35223, "ELEMENT_SET_NO": 999, "REV_AT_EPOCH": 93929, "BSTAR": 0.0007126832, "MEAN_MOTION_DOT": 7.747e-05, "MEAN_MOTION_DDOT": 0}, "tle": {"line1": "1 35223U 99025DQF 25349.91126472  .00007747  00000+0  71268-3 0  9996", "line2": "2 35223  98.9714 332.8200 0127856 316.3242  42.7908 14.89040296939298"}}, "geometry": {"type": "Point", "coordinates": [-25.004377595508053, 14.804537797920663]}}, {"type": "Feature", "properties": {"norad_id": 35229, "name": "FENGYUN 1C DEB", "group": "fengyun-1c-debris", "lat": 63.63409411575132, "lon": -89.43625329041019, "alt_km": 676.552923740438, "timestamp": "2025-12-19T22:41:52.681484+00:00", "meta": {"OBJECT_NAME": "FENGYUN 1C DEB", "OBJECT_ID": "1999-025DQM", "EPOCH": "2025-12-15T11:19:27.070176", "MEAN_MOTION": 14.60835555, "ECCENTRICITY": 0.00466086, "INCLINATION": 98.4587, "RA_OF_ASC_NODE": 68.5229, "ARG_OF_PERICENTER": 206.4488, "MEAN_ANOMALY": 153.4333, "EPHEMERIS_TYPE": 0, "CLASSIFICATION_TYPE": "U", "NORAD_CAT_ID": 35229, "ELEMENT_SET_NO": 999, "REV_AT_EPOCH": 64546, "BSTAR": 0.0033787408, "MEAN_MOTION_DOT": 0.00016753, "MEAN_MOTION_DDOT": 0}, "tle": {"line1": "1 35229U 99025DQM 25349.47184109  .00016753  00000+0  33787-2 0  9994", "line2": "2 35229  98.4587  68.5229 0046608 206.4488 153.4333 14.60835555645461"}}, "geometry": {"type": "Point", "coordinates": [-89.43625329041019, 63.63409411575132]}}, {"type": "Feature", "properties": {"norad_id": 35231, "name": "FENGYUN 1C DEB", "group": "fengyun-1c-debris", "lat": -36.5915476975143, "lon": 43.482816593917626, "alt_km": 855.830414933459, "timestamp": "2025-12-19T22:41:52.681494+00:00", "meta": {"OBJECT_NAME": "FENGYUN 1C DEB", "OBJECT_ID": "1999-025DQP", "EPOCH": "2025-12-19T09:17:30.482304", "MEAN_MOTION": 14.1452902, "ECCENTRICITY": 0.0037933, "INCLINATION": 98.7196, "RA_OF_ASC_NODE": 36.3949, "ARG_OF_PERICENTER": 66.6705, "MEAN_ANOMALY": 293.8453, "EPHEMERIS_TYPE": 0, "CLASSIFICATION_TYPE": "U", "NORAD_CAT_ID": 35231, "ELEMENT_SET_NO": 999, "REV_AT_EPOCH": 91596, "BSTAR": 2.8102e-05, "MEAN_MOTION_DOT": 1.1e-07, "MEAN_MOTION_DDOT": 0}, "tle": {"line1": "1 35231U 99025DQP 25353.38715836  .00000011  00000+0  28102-4 0  9996", "line2": "2 35231  98.7196  36.3949 0037933  66.6705 293.8453 14.14529020915967"}}, "geometry": {"type": "Point", "coordinates": [43.482816593917626, -36.5915476975143]}}, {"type": "Feature", "properties": {"norad_id": 35233, "name": "FENGYUN 1C DEB", "group": "fengyun-1c-debris", "lat": 28.182611946235024, "lon": 88.5242060804425, "alt_km": 776.2053807137754, "timestamp": "2025-12-19T22:41:52.681505+00:00", "meta": {"OBJECT_NAME": "FENGYUN 1C DEB", "OBJECT_ID": "1999-025DQR", "EPOCH": "2025-12-15T05:27:26.337888", "MEAN_MOTION": 14.41899105, "ECCENTRICITY": 0.00416218, "INCLINATION": 98.7704, "RA_OF_ASC_NODE": 88.4237, "ARG_OF_PERICENTER": 253.7513, "MEAN_ANOMALY": 136.1216, "EPHEMERIS_TYPE": 0, "CLASSIFICATION_TYPE": "U", "NORAD_CAT_ID": 35233, "ELEMENT_SET_NO": 999, "REV_AT_EPOCH": 91212, "BSTAR": 0.0013119788, "MEAN_MOTION_DOT": 4.295e-05, "MEAN_MOTION_DDOT": 0}, "tle": {"line1": "1 35233U 99025DQR 25349.22738817  .00004295  00000+0  13120-2 0  9990", "line2": "2 35233  98.7704  88.4237 0041621 253.7513 136.1216 14.41899105912122"}}, "geometry": {"type": "Point", "coordinates": [88.5242060804425, 28.182611946235024]}}, {"type": "Feature", "properties": {"norad_id": 35234, "name": "FENGYUN 1C DEB", "group": "fengyun-1c-debris", "lat": 44.62719397419967, "lon": 13.705406228909654, "alt_km": 739.5732478882583, "timestamp": "2025-12-19T22:41:52.681516+00:00", "meta": {"OBJECT_NAME": "FENGYUN 1C DEB", "OBJECT_ID": "1999-025DQS", "EPOCH": "2025-12-16T07:38:43.883808", "MEAN_MOTION": 14.65576253, "ECCENTRICITY": 0.00998673, "INCLINATION": 98.0689, "RA_OF_ASC_NODE": 18.1928, "ARG_OF_PERICENTER": 251.0842, "MEAN_ANOMALY": 107.9515, "EPHEMERIS_TYPE": 0, "CLASSIFICATION_TYPE": "U", "NORAD_CAT_ID": 35234, "ELEMENT_SET_NO": 999, "REV_AT_EPOCH": 94408, "BSTAR": 0.00038790099, "MEAN_MOTION_DOT": 2.212e-05, "MEAN_MOTION_DDOT": 0}, "tle": {"line1": "1 35234U 99025DQS 25350.31856347  .00002212  00000+0  38790-3 0  9990", "line2": "2 35234  98.0689  18.1928 0099867 251.0842 107.9515 14.65576253944086"}}, "geometry": {"type": "Point", "coordinates": [13.705406228909654, 44.62719397419967]}}]}